SIRION PATHFINDER-2     
1 43759U 18099B   26176.37405349  .00005240  00000+0  28705-3 0  9997
2 43759  97.4252 225.2368 0007046 270.0425  89.9999 15.14615380413863
CORVUS BC4              
1 43767U 18099K   26176.39174336  .00005130  00000+0  29765-3 0  9992
2 43767  97.4068 219.1315 0007399 344.0361  16.0636 15.12554610413644
M2 PATHFINDER           
1 45727U 20037E   26176.49243845  .00002439  00000+0  17753-3 0  9991
2 45727  97.8138   7.8170 0012594 122.0421 238.2030 15.04704429326745
NETSAT-4                
1 46504U 20068U   26176.48520851  .00021779  00000+0  47719-3 0  9996
2 46504  97.8604 185.3934 0003195 293.5185  66.5726 15.44122705317058
NETSAT-3                
1 46505U 20068V   26176.56267622  .00022885  00000+0  52137-3 0  9999
2 46505  97.8651 183.6828 0003240 321.9477  38.1540 15.42949452316978
NETSAT-1                
1 46506U 20068W   26176.54621522  .00015327  00000+0  45609-3 0  9990
2 46506  97.8743 177.8976 0003994   5.0239 355.1042 15.34821083316588
NETSAT-2                
1 46507U 20068X   26176.51361614  .00027912  00000+0  56635-3 0  9995
2 46507  97.8617 185.3494 0002117 356.4581   3.6652 15.46335494317028
GREENCUBE (IO-117)      
1 53109U 22080E   26174.72102765 -.00000003  00000+0  00000+0 0  9992
2 53109  70.1445 295.9726 0008926 288.1418  71.8270  6.42583215 92482
SITRO-AIS 5 (KATYS)     
1 57176U 23091L   26176.50933606  .00015383  00000+0  53665-3 0  9992
2 57176  97.5063 240.4881 0012519  77.6689 282.5952 15.29633356165611
SITRO-AIS 6 (CHIRKIN)   
1 57192U 23091AC  26176.50755291  .00013184  00000+0  51274-3 0  9993
2 57192  97.5070 239.5611 0012923  80.8158 279.4542 15.26082158165551
SITRO-AIS 8 (ANOKHIN)   
1 57193U 23091AD  26176.51173460  .00017364  00000+0  55684-3 0  9990
2 57193  97.5059 242.1132 0011466  74.1030 286.1474 15.32343645165729
SITRO-AIS 7 (FARTUSHNIY)
1 57194U 23091AE  26176.51241039  .00012879  00000+0  50576-3 0  9990
2 57194  97.5068 239.3867 0012793  81.7271 278.5417 15.25766361165546
SITRO-AIS 10 (BURDAEV)  
1 57199U 23091AK  26176.50805763  .00024910  00000+0  64747-3 0  9998
2 57199  97.5083 247.2500 0006823  54.9894 305.1991 15.38907315166040
SITRO-AIS 9 (SHCHUKIN)  
1 57201U 23091AM  26176.53713538  .00024389  00000+0  64435-3 0  9997
2 57201  97.5083 247.0030 0007075  55.0098 305.1810 15.38407270166032
SITRO-AIS 12 (SMIRENNIY)
1 57204U 23091AQ  26176.52616485  .00023535  00000+0  61611-3 0  9997
2 57204  97.5095 247.4643 0006572  49.8892 310.2928 15.38700871166058
SITRO-AIS 11 (SHEFFER)  
1 57208U 23091AU  26176.53726529  .00024597  00000+0  63481-3 0  9999
2 57208  97.5093 247.7276 0006478  49.6117 310.5693 15.39130486166072
SITRO-AIS 25            
1 59066U 24039R   26176.61694118  .00002335  00000+0  18426-3 0  9998
2 59066  95.3909 240.8854 0142627 298.9571  59.7416 14.93551714125984
SITRO-AIS 26            
1 59067U 24039S   26176.61946671  .00002247  00000+0  17824-3 0  9996
2 59067  95.3910 240.7829 0142998 299.5533  59.1501 14.93346029125973
SITRO-AIS 27            
1 59068U 24039T   26176.58735142  .00003101  00000+0  24270-3 0  9995
2 59068  95.3911 241.0363 0141969 298.2163  60.4788 14.93766100125994
SITRO-AIS 28            
1 59071U 24039U   26176.63158685  .00002555  00000+0  20039-3 0  9997
2 59071  95.3910 241.1147 0141945 297.8971  60.7939 14.93799261126002
GRBBETA                 
1 60237U 24128C   26176.51596108  .00003519  00000+0  24623-3 0  9999
2 60237  61.9879 187.0432 0039574 136.4122 224.0109 15.06684345107527
OOV-CUBE (TUBSAT-30)    
1 60240U 24128F   26176.37277781  .00001619  00000+0  13378-3 0  9994
2 60240  61.9924 197.0293 0043615 135.5897 224.8705 15.02800403107349
ROBUSTA-3A (MEDITERRAN*)
1 60243U 24128J   26175.74162040  .00004361  00000+0  26285-3 0  9996
2 60243  61.9846 181.5272 0040316 129.6556 230.8108 15.11735460107569
LASARSAT                
1 62391U 24247Q   26176.50206162  .00037392  00000+0  73141-3 0  9996
2 62391  44.9731 215.4755 0007302  21.1141 339.0049 15.46824718 84604
CROCUBE                 
1 62394U 24247T   26175.39308509  .00030725  00000+0  56517-3 0  9994
2 62394  44.9701 218.9251 0007226  18.8099 341.3058 15.48681185 84464
FORESAIL-1 PRIME        
1 66778U 25276DS  26176.16648582  .00005305  00000+0  25842-3 0  9994
2 66778  97.4202 249.2913 0003927  87.1697 272.9986 15.18766994 31619
KNACKSAT-2              
1 67683U 98067XZ  26176.42038818  .00054321  00000+0  64307-3 0  9993
2 67683  51.6277 253.0425 0008708 252.4154 107.5888 15.60671397 21563
