OBJECT_NAME,OBJECT_ID,EPOCH,MEAN_MOTION,ECCENTRICITY,INCLINATION,RA_OF_ASC_NODE,ARG_OF_PERICENTER,MEAN_ANOMALY,EPHEMERIS_TYPE,CLASSIFICATION_TYPE,NORAD_CAT_ID,ELEMENT_SET_NO,REV_AT_EPOCH,BSTAR,MEAN_MOTION_DOT,MEAN_MOTION_DDOT
SIRION PATHFINDER-2,2018-099B,2026-06-25T08:58:38.221536,15.14615380,.00070463,97.4252,225.2368,270.0425,89.9999,0,U,43759,999,41386,.28704925E-3,.524E-4,0
CORVUS BC4,2018-099K,2026-06-25T09:24:06.626304,15.12554610,.00073998,97.4068,219.1315,344.0361,16.0636,0,U,43767,999,41364,.29765037E-3,.513E-4,0
M2 PATHFINDER,2020-037E,2026-06-25T11:49:06.682080,15.04704429,.00125944,97.8138,7.8170,122.0421,238.2030,0,U,45727,999,32674,.17753127E-3,.2439E-4,0
NETSAT-4,2020-068U,2026-06-25T11:38:42.015264,15.44122705,.00031957,97.8604,185.3934,293.5185,66.5726,0,U,46504,999,31705,.47718583E-3,.21779E-3,0
NETSAT-3,2020-068V,2026-06-25T13:30:15.225408,15.42949452,.00032408,97.8651,183.6828,321.9477,38.1540,0,U,46505,999,31697,.52136717E-3,.22885E-3,0
NETSAT-1,2020-068W,2026-06-25T13:06:32.995008,15.34821083,.00039948,97.8743,177.8976,5.0239,355.1042,0,U,46506,999,31658,.45609478E-3,.15327E-3,0
NETSAT-2,2020-068X,2026-06-25T12:19:36.434496,15.46335494,.0002117,97.8617,185.3494,356.4581,3.6652,0,U,46507,999,31702,.56634693E-3,.27912E-3,0
GREENCUBE (IO-117),2022-080E,2026-06-23T17:18:16.788960,6.42583215,.00089266,70.1445,295.9726,288.1418,71.8270,0,U,53109,999,9248,0,-.3E-7,0
SITRO-AIS 5 (KATYS),2023-091L,2026-06-25T12:13:26.635584,15.29633356,.00125198,97.5063,240.4881,77.6689,282.5952,0,U,57176,999,16561,.53665103E-3,.15383E-3,0
SITRO-AIS 6 (CHIRKIN),2023-091AC,2026-06-25T12:10:52.571424,15.26082158,.00129235,97.5070,239.5611,80.8158,279.4542,0,U,57192,999,16555,.51273634E-3,.13184E-3,0
SITRO-AIS 8 (ANOKHIN),2023-091AD,2026-06-25T12:16:53.869440,15.32343645,.00114666,97.5059,242.1132,74.1030,286.1474,0,U,57193,999,16572,.55683985E-3,.17364E-3,0
SITRO-AIS 7 (FARTUSHNIY),2023-091AE,2026-06-25T12:17:52.257696,15.25766361,.00127934,97.5068,239.3867,81.7271,278.5417,0,U,57194,999,16554,.50576104E-3,.12879E-3,0
SITRO-AIS 10 (BURDAEV),2023-091AK,2026-06-25T12:11:36.179232,15.38907315,.00068235,97.5083,247.2500,54.9894,305.1991,0,U,57199,999,16604,.64746727E-3,.2491E-3,0
SITRO-AIS 9 (SHCHUKIN),2023-091AM,2026-06-25T12:53:28.496832,15.38407270,.00070755,97.5083,247.0030,55.0098,305.1810,0,U,57201,999,16603,.64435376E-3,.24389E-3,0
SITRO-AIS 12 (SMIRENNIY),2023-091AQ,2026-06-25T12:37:40.643040,15.38700871,.00065729,97.5095,247.4643,49.8892,310.2928,0,U,57204,999,16605,.61610895E-3,.23535E-3,0
SITRO-AIS 11 (SHEFFER),2023-091AU,2026-06-25T12:53:39.721056,15.39130486,.00064784,97.5093,247.7276,49.6117,310.5693,0,U,57208,999,16607,.63480562E-3,.24597E-3,0
SITRO-AIS 25,2024-039R,2026-06-25T14:48:23.717952,14.93551714,.01426273,95.3909,240.8854,298.9571,59.7416,0,U,59066,999,12598,.18426176E-3,.2335E-4,0
SITRO-AIS 26,2024-039S,2026-06-25T14:52:01.923744,14.93346029,.01429987,95.3910,240.7829,299.5533,59.1501,0,U,59067,999,12597,.17823753E-3,.2247E-4,0
SITRO-AIS 27,2024-039T,2026-06-25T14:05:47.162688,14.93766100,.01419694,95.3911,241.0363,298.2163,60.4788,0,U,59068,999,12599,.24269785E-3,.3101E-4,0
SITRO-AIS 28,2024-039U,2026-06-25T15:09:29.103840,14.93799261,.01419451,95.3910,241.1147,297.8971,60.7939,0,U,59071,999,12600,.20038966E-3,.2555E-4,0
GRBBETA,2024-128C,2026-06-25T12:22:59.037312,15.06684345,.00395743,61.9879,187.0432,136.4122,224.0109,0,U,60237,999,10752,.24623407E-3,.3519E-4,0
OOV-CUBE (TUBSAT-30),2024-128F,2026-06-25T08:56:48.002784,15.02800403,.00436154,61.9924,197.0293,135.5897,224.8705,0,U,60240,999,10734,.13378427E-3,.1619E-4,0
ROBUSTA-3A (MEDITERRANEE),2024-128J,2026-06-24T17:47:56.002560,15.11735460,.00403168,61.9846,181.5272,129.6556,230.8108,0,U,60243,999,10756,.26284569E-3,.4361E-4,0
LASARSAT,2024-247Q,2026-06-25T12:02:58.123968,15.46824718,.00073022,44.9731,215.4755,21.1141,339.0049,0,U,62391,999,8460,.73141065E-3,.37392E-3,0
CROCUBE,2024-247T,2026-06-24T09:26:02.551776,15.48681185,.00072263,44.9701,218.9251,18.8099,341.3058,0,U,62394,999,8446,.56516968E-3,.30725E-3,0
FORESAIL-1 PRIME,2025-276DS,2026-06-25T03:59:44.374848,15.18766994,.00039274,97.4202,249.2913,87.1697,272.9986,0,U,66778,999,3161,.25842125E-3,.5305E-4,0
KNACKSAT-2,1998-067XZ,2026-06-25T10:05:21.538752,15.60671397,.00087086,51.6277,253.0425,252.4154,107.5888,0,U,67683,999,2156,.64307031E-3,.54321E-3,0
